{"type":"FeatureCollection","features":[{"type":"Feature","properties":{"name":"label_1","type":"label","text":"shfoisdcoishdosi"},"geometry":{"type":"Point","coordinates":[-65.439076,-24.879448]}},{"type":"Feature","properties":{"name":"polyline_57","type":"polyline","text":"sdfsdfsdfsdfsdf"},"geometry":{"type":"LineString","coordinates":[[-65.439291,-24.888617],[-65.424786,-24.88667],[-65.424099,-24.896558],[-65.436115,-24.896013],[-65.461006,-24.888364]]}},{"type":"Feature","properties":{"name":"circle_1","type":"circle","text":"hhh"},"geometry":{"type":"Point","coordinates":[-65.466843,-24.885736]}},{"type":"Feature","properties":{"name":"marker_1","type":"marker","text":"ddff"},"geometry":{"type":"Point","coordinates":[-65.440149,-24.87647]}},{"type":"Feature","properties":{"name":"circlemarker_1","type":"circlemarker","text":"jhj"},"geometry":{"type":"Point","coordinates":[-65.458088,-24.87429]}}]}